{"type": "FeatureCollection", "features": [ {"type": "Feature", "properties": {"norad_id": 57401, "name": "TIANMU-1 09", "group": "weather", "lat": 17.11495637443285, "lon": -149.4218351027574, "alt_km": 480.2182756331531, "timestamp": "2025-12-04T23:34:05.374553+00:00", "meta": {"OBJECT_NAME": "TIANMU-1 09", "OBJECT_ID": "2023-101C", "EPOCH": "2025-12-04T18:08:38.049216", "MEAN_MOTION": 15.27903646, "ECCENTRICITY": 0.0006767, "INCLINATION": 97.2835, "RA_OF_ASC_NODE": 28.1002, "ARG_OF_PERICENTER": 105.456, "MEAN_ANOMALY": 254.7427, "EPHEMERIS_TYPE": 0, "CLASSIFICATION_TYPE": "U", "NORAD_CAT_ID": 57401, "ELEMENT_SET_NO": 999, "REV_AT_EPOCH": 13193, "BSTAR": 0.0006083, "MEAN_MOTION_DOT": 0.00016525, "MEAN_MOTION_DDOT": 0}, "tle": {"line1": "1 57401U 23101C   25338.75599594  .00016525  00000+0  60830-3 0  9996", "line2": "2 57401  97.2835  28.1002 0006767 105.4560 254.7427 15.27903646131934"}}, "geometry": {"type": "Point", "coordinates": [-149.4218351027574, 17.11495637443285]}}, {"type": "Feature", "properties": {"norad_id": 57402, "name": "TIANMU-1 10", "group": "weather", "lat": -25.229214067977832, "lon": 32.62159385113261, "alt_km": 491.6365165213765, "timestamp": "2025-12-04T23:34:05.374564+00:00", "meta": {"OBJECT_NAME": "TIANMU-1 10", "OBJECT_ID": "2023-101D", "EPOCH": "2025-12-04T17:23:31.882848", "MEAN_MOTION": 15.27892696, "ECCENTRICITY": 0.0008541, "INCLINATION": 97.2915, "RA_OF_ASC_NODE": 28.911, "ARG_OF_PERICENTER": 106.4919, "MEAN_ANOMALY": 253.7259, "EPHEMERIS_TYPE": 0, "CLASSIFICATION_TYPE": "U", "NORAD_CAT_ID": 57402, "ELEMENT_SET_NO": 999, "REV_AT_EPOCH": 13192, "BSTAR": 0.00056241, "MEAN_MOTION_DOT": 0.00015271, "MEAN_MOTION_DDOT": 0}, "tle": {"line1": "1 57402U 23101D   25338.72467457  .00015271  00000+0  56241-3 0  9994", "line2": "2 57402  97.2915  28.9110 0008541 106.4919 253.7259 15.27892696131926"}}, "geometry": {"type": "Point", "coordinates": [32.62159385113261, -25.229214067977832]}}, {"type": "Feature", "properties": {"norad_id": 57490, "name": "FENGYUN 3F", "group": "weather", "lat": 7.878315168389492, "lon": 46.18491438279429, "alt_km": 827.4698296027145, "timestamp": "2025-12-04T23:34:05.374575+00:00", "meta": {"OBJECT_NAME": "FENGYUN 3F", "OBJECT_ID": "2023-111A", "EPOCH": "2025-12-04T18:27:25.396416", "MEAN_MOTION": 14.19890321, "ECCENTRICITY": 6.75e-05, "INCLINATION": 98.7094, "RA_OF_ASC_NODE": 47.1908, "ARG_OF_PERICENTER": 88.6249, "MEAN_ANOMALY": 271.5005, "EPHEMERIS_TYPE": 0, "CLASSIFICATION_TYPE": "U", "NORAD_CAT_ID": 57490, "ELEMENT_SET_NO": 999, "REV_AT_EPOCH": 12127, "BSTAR": 0.00010818, "MEAN_MOTION_DOT": 1.86e-06, "MEAN_MOTION_DDOT": 0}, "tle": {"line1": "1 57490U 23111A   25338.76904394  .00000186  00000+0  10818-3 0  9991", "line2": "2 57490  98.7094  47.1908 0000675  88.6249 271.5005 14.19890321121279"}}, "geometry": {"type": "Point", "coordinates": [46.18491438279429, 7.878315168389492]}}, {"type": "Feature", "properties": {"norad_id": 58584, "name": "ARKTIKA-M 2", "group": "weather", "lat": 56.72189855930705, "lon": -133.9376842540501, "alt_km": 33799.532506849435, "timestamp": "2025-12-04T23:34:05.374588+00:00", "meta": {"OBJECT_NAME": "ARKTIKA-M 2", "OBJECT_ID": "2023-198A", "EPOCH": "2025-12-03T08:34:19.284960", "MEAN_MOTION": 2.00605176, "ECCENTRICITY": 0.68642509, "INCLINATION": 63.2223, "RA_OF_ASC_NODE": 175.9121, "ARG_OF_PERICENTER": 268.1397, "MEAN_ANOMALY": 18.842, "EPHEMERIS_TYPE": 0, "CLASSIFICATION_TYPE": "U", "NORAD_CAT_ID": 58584, "ELEMENT_SET_NO": 999, "REV_AT_EPOCH": 1439, "BSTAR": 0, "MEAN_MOTION_DOT": 2.24e-06, "MEAN_MOTION_DDOT": 0}, "tle": {"line1": "1 58584U 23198A   25337.35716765  .00000224  00000+0  00000+0 0  9999", "line2": "2 58584  63.2223 175.9121 6864250 268.1397  18.8420  2.00605176 14390"}}, "geometry": {"type": "Point", "coordinates": [-133.9376842540501, 56.72189855930705]}}, {"type": "Feature", "properties": {"norad_id": 58645, "name": "TIANMU-1 11", "group": "weather", "lat": -68.97212043515466, "lon": 159.09314255915444, "alt_km": 499.79590416886913, "timestamp": "2025-12-04T23:34:05.374601+00:00", "meta": {"OBJECT_NAME": "TIANMU-1 11", "OBJECT_ID": "2023-205A", "EPOCH": "2025-12-04T17:44:49.966944", "MEAN_MOTION": 15.24450808, "ECCENTRICITY": 0.0008687, "INCLINATION": 97.3606, "RA_OF_ASC_NODE": 358.5045, "ARG_OF_PERICENTER": 341.9312, "MEAN_ANOMALY": 18.1615, "EPHEMERIS_TYPE": 0, "CLASSIFICATION_TYPE": "U", "NORAD_CAT_ID": 58645, "ELEMENT_SET_NO": 999, "REV_AT_EPOCH": 10787, "BSTAR": 0.00055504, "MEAN_MOTION_DOT": 0.00013581, "MEAN_MOTION_DDOT": 0}, "tle": {"line1": "1 58645U 23205A   25338.73946721  .00013581  00000+0  55504-3 0  9999", "line2": "2 58645  97.3606 358.5045 0008687 341.9312  18.1615 15.24450808107875"}}, "geometry": {"type": "Point", "coordinates": [159.09314255915444, -68.97212043515466]}}, {"type": "Feature", "properties": {"norad_id": 58646, "name": "TIANMU-1 12", "group": "weather", "lat": 72.8359232827023, "lon": -156.71216516612824, "alt_km": 489.0755346354108, "timestamp": "2025-12-04T23:34:05.374611+00:00", "meta": {"OBJECT_NAME": "TIANMU-1 12", "OBJECT_ID": "2023-205B", "EPOCH": "2025-12-04T18:22:50.401632", "MEAN_MOTION": 15.24364412, "ECCENTRICITY": 0.0006505, "INCLINATION": 97.3593, "RA_OF_ASC_NODE": 358.3386, "ARG_OF_PERICENTER": 327.358, "MEAN_ANOMALY": 32.7254, "EPHEMERIS_TYPE": 0, "CLASSIFICATION_TYPE": "U", "NORAD_CAT_ID": 58646, "ELEMENT_SET_NO": 999, "REV_AT_EPOCH": 10786, "BSTAR": 0.0005265, "MEAN_MOTION_DOT": 0.00012838, "MEAN_MOTION_DDOT": 0}, "tle": {"line1": "1 58646U 23205B   25338.76586113  .00012838  00000+0  52650-3 0  9991", "line2": "2 58646  97.3593 358.3386 0006505 327.3580  32.7254 15.24364412107864"}}, "geometry": {"type": "Point", "coordinates": [-156.71216516612824, 72.8359232827023]}}, {"type": "Feature", "properties": {"norad_id": 58647, "name": "TIANMU-1 13", "group": "weather", "lat": -77.1192642249066, "lon": 33.179472750697265, "alt_km": 495.99635504221624, "timestamp": "2025-12-04T23:34:05.374625+00:00", "meta": {"OBJECT_NAME": "TIANMU-1 13", "OBJECT_ID": "2023-205C", "EPOCH": "2025-12-04T19:11:21.905376", "MEAN_MOTION": 15.24372607, "ECCENTRICITY": 0.0006291, "INCLINATION": 97.3622, "RA_OF_ASC_NODE": 358.5692, "ARG_OF_PERICENTER": 303.189, "MEAN_ANOMALY": 56.8744, "EPHEMERIS_TYPE": 0, "CLASSIFICATION_TYPE": "U", "NORAD_CAT_ID": 58647, "ELEMENT_SET_NO": 999, "REV_AT_EPOCH": 10786, "BSTAR": 0.00055143, "MEAN_MOTION_DOT": 0.00013454, "MEAN_MOTION_DDOT": 0}, "tle": {"line1": "1 58647U 23205C   25338.79955909  .00013454  00000+0  55143-3 0  9993", "line2": "2 58647  97.3622 358.5692 0006291 303.1890  56.8744 15.24372607107864"}}, "geometry": {"type": "Point", "coordinates": [33.179472750697265, -77.1192642249066]}}, {"type": "Feature", "properties": {"norad_id": 58648, "name": "TIANMU-1 14", "group": "weather", "lat": 12.001797853864215, "lon": -3.469253466656186, "alt_km": 492.0132874449064, "timestamp": "2025-12-04T23:34:05.374635+00:00", "meta": {"OBJECT_NAME": "TIANMU-1 14", "OBJECT_ID": "2023-205D", "EPOCH": "2025-12-04T17:12:48.544128", "MEAN_MOTION": 15.24355337, "ECCENTRICITY": 0.0007177, "INCLINATION": 97.3554, "RA_OF_ASC_NODE": 357.8445, "ARG_OF_PERICENTER": 308.2097, "MEAN_ANOMALY": 51.8494, "EPHEMERIS_TYPE": 0, "CLASSIFICATION_TYPE": "U", "NORAD_CAT_ID": 58648, "ELEMENT_SET_NO": 999, "REV_AT_EPOCH": 10785, "BSTAR": 0.0005379, "MEAN_MOTION_DOT": 0.00013117, "MEAN_MOTION_DDOT": 0}, "tle": {"line1": "1 58648U 23205D   25338.71722852  .00013117  00000+0  53790-3 0  9997", "line2": "2 58648  97.3554 357.8445 0007177 308.2097  51.8494 15.24355337107853"}}, "geometry": {"type": "Point", "coordinates": [-3.469253466656186, 12.001797853864215]}}, {"type": "Feature", "properties": {"norad_id": 58660, "name": "TIANMU-1 19", "group": "weather", "lat": 5.089909952210381, "lon": -89.29705644016263, "alt_km": 486.40393977837175, "timestamp": "2025-12-04T23:34:05.374645+00:00", "meta": {"OBJECT_NAME": "TIANMU-1 19", "OBJECT_ID": "2023-208A", "EPOCH": "2025-12-04T18:05:20.461056", "MEAN_MOTION": 15.2762508, "ECCENTRICITY": 0.0004085, "INCLINATION": 97.4397, "RA_OF_ASC_NODE": 89.8083, "ARG_OF_PERICENTER": 288.7664, "MEAN_ANOMALY": 71.3132, "EPHEMERIS_TYPE": 0, "CLASSIFICATION_TYPE": "U", "NORAD_CAT_ID": 58660, "ELEMENT_SET_NO": 999, "REV_AT_EPOCH": 10760, "BSTAR": 0.00068391, "MEAN_MOTION_DOT": 0.00018426, "MEAN_MOTION_DDOT": 0}, "tle": {"line1": "1 58660U 23208A   25338.75370904  .00018426  00000+0  68391-3 0  9996", "line2": "2 58660  97.4397  89.8083 0004085 288.7664  71.3132 15.27625080107607"}}, "geometry": {"type": "Point", "coordinates": [-89.29705644016263, 5.089909952210381]}}, {"type": "Feature", "properties": {"norad_id": 58661, "name": "TIANMU-1 20", "group": "weather", "lat": -35.49467718577352, "lon": -94.86642843059583, "alt_km": 485.1246187297884, "timestamp": "2025-12-04T23:34:05.374656+00:00", "meta": {"OBJECT_NAME": "TIANMU-1 20", "OBJECT_ID": "2023-208B", "EPOCH": "2025-12-04T17:54:51.125184", "MEAN_MOTION": 15.28816396, "ECCENTRICITY": 0.0006435, "INCLINATION": 97.4334, "RA_OF_ASC_NODE": 90.2409, "ARG_OF_PERICENTER": 299.2642, "MEAN_ANOMALY": 60.7954, "EPHEMERIS_TYPE": 0, "CLASSIFICATION_TYPE": "U", "NORAD_CAT_ID": 58661, "ELEMENT_SET_NO": 999, "REV_AT_EPOCH": 10767, "BSTAR": 0.00064987, "MEAN_MOTION_DOT": 0.00018159, "MEAN_MOTION_DDOT": 0}, "tle": {"line1": "1 58661U 23208B   25338.74642506  .00018159  00000+0  64987-3 0  9996", "line2": "2 58661  97.4334  90.2409 0006435 299.2642  60.7954 15.28816396107675"}}, "geometry": {"type": "Point", "coordinates": [-94.86642843059583, -35.49467718577352]}}]}